[{"OBJECT_NAME":"STARLINK-3960","OBJECT_ID":"2022-053D","EPOCH":"2026-03-09T22:56:54.295872","MEAN_MOTION":15.08836522,"ECCENTRICITY":0.00012698,"INCLINATION":53.2175,"RA_OF_ASC_NODE":152.8769,"ARG_OF_PERICENTER":85.1783,"MEAN_ANOMALY":274.9354,"EPHEMERIS_TYPE":0,"CLASSIFICATION_TYPE":"U","NORAD_CAT_ID":52659,"ELEMENT_SET_NO":999,"REV_AT_EPOCH":21126,"BSTAR":2.3668795e-5,"MEAN_MOTION_DOT":8.9e-7,"MEAN_MOTION_DDOT":0},{"OBJECT_NAME":"KUIPER-00148","OBJECT_ID":"2025-217H","EPOCH":"2026-03-09T06:36:19.446048","MEAN_MOTION":15.09536529,"ECCENTRICITY":0.00081087,"INCLINATION":51.8794,"RA_OF_ASC_NODE":26.5769,"ARG_OF_PERICENTER":351.8096,"MEAN_ANOMALY":8.2745,"EPHEMERIS_TYPE":0,"CLASSIFICATION_TYPE":"U","NORAD_CAT_ID":65769,"ELEMENT_SET_NO":999,"REV_AT_EPOCH":2507,"BSTAR":0.00098730243,"MEAN_MOTION_DOT":0.00015783,"MEAN_MOTION_DDOT":0}]
